MEAN_MOTION;ECCENTRICITY;INCLINATION;RA_OF_ASC_NODE;ARG_OF_PERICENTER;MEAN_ANOMALY;BSTAR;MEAN_MOTION_DOT;MEAN_MOTION_DDOT;TYPE
11.99836663;0.0001997;51.9798;159.6414;303.6093;224.575;4.7158E-6;-8.6E-7;0;Globalstar
11.99836667;0.0002028;51.9796;156.7151;306.0211;215.4343;1.0755E-5;-8.5E-7;0;Globalstar
11.99836663;0.0002052;51.9796;154.0244;308.2462;190.383;2.6728E-5;-8.4E-7;0;Globalstar
11.9983667;0.0002068;51.9795;152.2703;309.582;110.4686;5.5541E-5;-8.2E-7;0;Globalstar
11.9983667;0.0002071;51.9795;152.0266;309.8091;139.4318;6.6414E-5;-8.1E-7;0;Globalstar
11.99836713;0.0002101;51.9795;149.2836;311.9781;197.7768;0.00015374;-7.4E-7;0;Globalstar
11.99836742;0.000213;51.9794;146.64;314.1647;97.5616;0.00020488;-7.0E-7;0;Globalstar
11.99836775;0.0002146;51.9794;144.8478;315.4941;78.2809;0.00025624;-6.6E-7;0;Globalstar
11.99836786;0.0002152;51.9794;144.1486;316.0142;114.3507;0.00028319;-6.3E-7;0;Globalstar
11.99836835;0.0002182;51.9793;141.202;318.3611;137.825;0.00036909;-5.6E-7;0;Globalstar
11.99836895;0.0002217;51.9792;138.0061;320.8511;199.1011;0.00040268;-5.4E-7;0;Globalstar
11.998369;0.0002242;51.9792;135.5608;322.7418;142.4968;0.00032714;-6.0E-7;0;Globalstar
11.99836908;0.0002262;51.9791;133.054;324.7387;183.7553;0.00021105;-6.9E-7;0;Globalstar
11.998369;0.0002267;51.9791;132.8271;324.9188;185.8621;0.00018087;-7.2E-7;0;Globalstar
11.99836889;0.0002293;51.979;130.3711;326.7219;146.2184;2.7603E-5;-8.4E-7;0;Globalstar
11.99836894;0.0002308;51.9789;128.8548;327.8764;46.5123;-5.0188E-5;-9.0E-7;0;Globalstar
11.99836906;0.0002321;51.9789;127.6644;328.8618;146.4519;-7.3221E-5;-9.2E-7;0;Globalstar
11.99836928;0.0002348;51.9788;125.4417;330.5847;94.326;-0.00010715;-9.5E-7;0;Globalstar
11.99836937;0.0002354;51.9788;124.9575;331.0249;147.0238;-9.4141E-5;-9.4E-7;0;Globalstar
11.99836962;0.0002383;51.9787;122.493;332.9114;120.7669;-4.719E-5;-9.0E-7;0;Globalstar
11.9983699;0.000241;51.9786;119.7861;334.9654;121.3259;7.1758E-5;-8.0E-7;0;Globalstar
11.99836998;0.000241;51.9786;119.5439;335.1715;147.9894;8.9094E-5;-7.9E-7;0;Globalstar
11.99837026;0.0002441;51.9787;116.5931;337.4477;177.9128;0.00024157;-6.7E-7;0;Globalstar
11.99837022;0.0002461;51.9787;114.3732;339.1707;121.2811;0.00031163;-6.1E-7;0;Globalstar
11.99837021;0.0002478;51.9787;112.3597;340.7463;95.0615;0.00031324;-6.1E-7;0;Globalstar
11.99837026;0.0002486;51.9787;111.4116;341.5377;168.2033;0.0003304;-6.0E-7;0;Globalstar
11.99837041;0.000251;51.9788;108.9598;343.5592;121.5564;0.00028584;-6.3E-7;0;Globalstar
11.99837057;0.0002524;51.9788;106.9478;345.0687;93.0596;0.00019209;-7.1E-7;0;Globalstar
11.99837067;0.0002543;51.9788;106.0003;345.8433;165.372;0.00017191;-7.2E-7;0;Globalstar
11.99837095;0.0002564;51.9789;103.5103;347.7671;179.7519;5.3676E-5;-8.2E-7;0;Globalstar
11.99837131;0.0002592;51.979;100.8051;349.9141;177.6208;-4.928E-5;-9.0E-7;0;Globalstar
11.99837142;0.000261;51.979;99.3108;351.0988;42.6722;-0.00010444;-9.5E-7;0;Globalstar
11.99837103;0.0002652;51.9792;96.1398;353.7527;63.8423;-0.00018876;-1.01E-6;0;Globalstar
11.99837112;0.0002668;51.9791;95.1772;354.5761;160.1001;-0.00015879;-9.9E-7;0;Globalstar
11.99837092;0.0002683;51.9792;93.4189;355.9179;86.6755;-0.00015722;-9.9E-7;0;Globalstar
11.99837093;0.0002698;51.9792;92.6877;356.588;173.524;-0.00011215;-9.5E-7;0;Globalstar
11.99837084;0.0002723;51.9793;89.9794;358.697;176.3195;-4.8848E-5;-9.0E-7;0;Globalstar
11.99837082;0.0002768;51.9796;86.0081;1.7916;34.8967;3.1166E-5;-8.4E-7;0;Globalstar
11.99837078;0.0002769;51.9796;85.532;2.1385;74.9106;1.49E-5;-8.5E-7;0;Globalstar
11.99837077;0.0002779;51.9797;84.5851;2.9786;146.0936;4.0712E-5;-8.3E-7;0;Globalstar
11.99837098;0.0002795;51.9798;82.8251;4.3283;75.3132;5.0817E-5;-8.2E-7;0;Globalstar
11.99837103;0.0002805;51.98;81.8808;5.0852;142.6566;4.9679E-5;-8.2E-7;0;Globalstar
11.99837106;0.0002817;51.9802;79.9037;6.5481;58.6011;7.561E-6;-8.6E-7;0;Globalstar
11.998371;0.0002827;51.9802;79.1753;7.0917;141.2567;-1.7818E-5;-8.8E-7;0;Globalstar
11.99837127;0.0002843;51.9805;76.4683;8.9062;142.5556;-4.0655E-5;-8.9E-7;0;Globalstar
11.99837129;0.0002888;51.9809;72.4963;12.0946;2.8547;-6.0752E-5;-9.1E-7;0;Globalstar
11.99837121;0.0002912;51.9811;69.7542;14.2364;59.9823;-7.0509E-5;-9.2E-7;0;Globalstar
11.99837135;0.0002922;51.9812;68.6109;15.1486;84.8425;-2.7999E-5;-8.8E-7;0;Globalstar
11.99837124;0.0002942;51.9813;66.3548;16.8617;86.2436;-3.7963E-5;-8.9E-7;0;Globalstar
11.99837129;0.0002947;51.9813;65.8616;17.2445;153.453;-3.3479E-5;-8.9E-7;0;Globalstar
11.99837107;0.0002969;51.9815;63.1698;19.2522;130.4113;-8.7911E-5;-9.3E-7;0;Globalstar
11.99837087;0.0002981;51.9816;61.6588;20.4829;22.3041;-0.00014162;-9.8E-7;0;Globalstar
11.99837077;0.0003006;51.9818;59.1962;22.4473;353.2159;-0.00014499;-9.8E-7;0;Globalstar
11.99837063;0.0003015;51.9819;57.7611;23.4142;124.0918;-0.00018142;-1.01E-6;0;Globalstar
11.99837067;0.0003033;51.9822;55.5068;25.1007;122.7564;-0.00014231;-9.8E-7;0;Globalstar
11.99837072;0.0003038;51.9822;55.0552;25.4096;123.7879;-0.00014;-9.7E-7;0;Globalstar
11.99837077;0.0003046;51.9823;54.0013;26.172;6.0691;-0.00010309;-9.4E-7;0;Globalstar
11.99837079;0.0003062;51.9824;52.3483;27.4574;124.886;-6.5526E-5;-9.1E-7;0;Globalstar
11.99837106;0.0003065;51.9826;50.8459;28.4408;3.3534;-2.024E-6;-8.6E-7;0;Globalstar
11.9983711;0.000308;51.9826;49.6403;29.4094;127.8661;4.4814E-5;-8.3E-7;0;Globalstar
11.99837114;0.0003115;51.9829;45.4092;32.6821;42.4171;0.00011292;-7.7E-7;0;Globalstar
11.99837122;0.0003122;51.983;44.6872;33.171;115.1959;0.00014424;-7.5E-7;0;Globalstar
11.99837103;0.000314;51.983;42.7038;34.7637;41.2809;7.1559E-5;-8.0E-7;0;Globalstar
11.99837131;0.0003158;51.9831;41.5378;35.6829;102.8834;9.711E-5;-7.8E-7;0;Globalstar
11.99837122;0.0003169;51.9832;39.9984;36.9208;40.2397;3.2329E-5;-8.4E-7;0;Globalstar
11.99837128;0.0003195;51.9833;37.2926;39.2134;39.5306;-4.2099E-5;-9.0E-7;0;Globalstar
11.99837136;0.0003196;51.9833;37.0777;39.3539;22.5979;-2.8257E-5;-8.8E-7;0;Globalstar
11.9983716;0.0003216;51.9833;34.5877;41.3743;37.4777;-6.5664E-5;-9.1E-7;0;Globalstar
11.99837156;0.0003222;51.9833;33.8868;41.6845;76.7795;-7.0893E-5;-9.2E-7;0;Globalstar
11.99837178;0.0003235;51.9833;31.8817;43.245;37.5877;-6.115E-5;-9.1E-7;0;Globalstar
11.99837182;0.0003237;51.9833;31.1514;43.7543;123.4566;-3.4384E-5;-8.9E-7;0;Globalstar
11.99837176;0.0003239;51.9833;30.7195;43.9096;93.1335;-6.2496E-5;-9.1E-7;0;Globalstar
11.99837176;0.0003249;51.9833;29.1771;45.0845;35.4003;-3.2325E-5;-8.9E-7;0;Globalstar
11.99837193;0.0003255;51.9833;28.4747;45.5858;76.797;3.0357E-5;-8.4E-7;0;Globalstar
11.99837208;0.0003264;51.9834;27.177;46.4438;348.5679;8.8138E-5;-7.9E-7;0;Globalstar
11.99837194;0.0003271;51.9834;26.4709;47.0447;35.5861;7.8563E-5;-8.0E-7;0;Globalstar
11.99837215;0.000328;51.9833;25.5225;47.7263;109.6596;0.00014395;-7.5E-7;0;Globalstar
11.99837213;0.0003292;51.9834;23.9972;48.8655;24.67;0.00017569;-7.2E-7;0;Globalstar
11.99837216;0.000329;51.9834;23.7677;48.9723;31.1266;0.00019267;-7.1E-7;0;Globalstar
11.99837224;0.0003307;51.9834;21.2907;50.7826;25.2064;0.00023634;-6.7E-7;0;Globalstar
11.99837222;0.0003307;51.9834;21.0611;50.945;31.8432;0.00024556;-6.6E-7;0;Globalstar
11.99837242;0.0003326;51.9833;18.5852;52.8359;24.2139;0.00024197;-6.7E-7;0;Globalstar
11.9983724;0.0003331;51.9834;17.8918;53.3339;51.297;0.00024075;-6.7E-7;0;Globalstar
11.99837271;0.0003341;51.9833;15.8801;54.9003;22.6674;0.00020241;-7.0E-7;0;Globalstar
11.99837296;0.0003345;51.9833;15.1808;55.365;59.0971;0.00023159;-6.8E-7;0;Globalstar
11.99837331;0.0003363;51.9833;12.4746;57.31;59.5119;0.00015351;-7.4E-7;0;Globalstar
11.99837332;0.0003364;51.9833;12.2301;57.464;89.7355;0.00013857;-7.5E-7;0;Globalstar
11.99837368;0.0003377;51.9832;9.7562;59.2144;79.2002;0.00010537;-7.8E-7;0;Globalstar
11.99837388;0.0003383;51.9831;7.524;60.8224;42.5921;9.1878E-5;-7.9E-7;0;Globalstar
11.99837397;0.0003389;51.9831;6.8174;61.3662;90.5809;9.744E-5;-7.8E-7;0;Globalstar
11.99837406;0.0003396;51.983;4.8213;62.835;37.1821;0.00012011;-7.7E-7;0;Globalstar
11.99837424;0.0003401;51.9829;4.1107;63.3414;91.4781;0.00014711;-7.4E-7;0;Globalstar
11.99837432;0.0003403;51.9829;3.0336;64.1082;10.9927;0.00018416;-7.1E-7;0;Globalstar
11.99837438;0.0003404;51.9828;2.1156;64.8139;36.3298;0.00022174;-6.8E-7;0;Globalstar
11.99837433;0.0003421;51.9827;359.6318;66.7298;41.1543;0.0002415;-6.7E-7;0;Globalstar
11.99837436;0.0003423;51.9827;359.41;66.9213;35.1024;0.00025563;-6.6E-7;0;Globalstar
11.99837448;0.0003427;51.9826;356.9534;68.7011;356.6213;0.00027815;-6.4E-7;0;Globalstar
11.9983747;0.0003436;51.9826;356.2238;69.2271;81.2913;0.00031532;-6.1E-7;0;Globalstar
11.9983748;0.0003442;51.9825;354.2466;70.6846;357.4332;0.00028323;-6.3E-7;0;Globalstar
11.99837509;0.000345;51.9825;352.0187;72.3227;313.8087;0.00024017;-6.7E-7;0;Globalstar
11.99837523;0.000345;51.9824;351.5454;72.6575;349.3454;0.00025417;-6.6E-7;0;Globalstar
11.9983756;0.0003456;51.9824;349.0553;74.4706;4.3016;0.00018976;-7.1E-7;0;Globalstar
11.99837575;0.0003457;51.9824;348.8376;74.5991;351.8393;0.00022155;-6.8E-7;0;Globalstar
11.99837618;0.0003465;51.9823;346.3492;76.2274;4.2896;0.00018628;-7.1E-7;0;Globalstar
11.99837622;0.0003467;51.9823;345.9167;76.6002;334.5908;0.00019112;-7.1E-7;0;Globalstar
11.99837627;0.000347;51.9822;343.4056;78.348;23.1725;0.00013473;-7.5E-7;0;Globalstar
11.99837648;0.0003472;51.9821;341.6573;79.5204;294.1049;0.00015011;-7.4E-7;0;Globalstar
11.99837627;0.0003473;51.9821;340.7015;80.388;19.6293;0.00010904;-7.7E-7;0;Globalstar
11.99837654;0.0003474;51.982;339.9899;80.9561;75.5284;0.00013625;-7.5E-7;0;Globalstar
11.99837668;0.0003478;51.9819;337.7407;82.5424;66.0186;0.00017173;-7.2E-7;0;Globalstar
11.99837677;0.0003478;51.9819;337.5215;82.7614;55.8041;0.00018182;-7.2E-7;0;Globalstar
11.99837672;0.0003478;51.9819;335.7792;84.0028;317.0919;0.00015014;-7.4E-7;0;Globalstar
11.99837685;0.0003479;51.9818;335.3013;84.4141;359.9291;0.00018957;-7.1E-7;0;Globalstar
11.99837694;0.0003483;51.9818;333.0518;85.8535;350.8512;0.00018553;-7.1E-7;0;Globalstar
